NORAD_CAT_ID,OBJECT_NAME,OBJECT_TYPE,EPOCH,MEAN_MOTION,ECCENTRICITY,INCLINATION,RA_OF_ASC_NODE,ARG_OF_PERICENTER,MEAN_ANOMALY,BSTAR,MEAN_MOTION_DOT,MEAN_MOTION_DDOT,TLE_LINE0,TLE_LINE1,TLE_LINE2,SEMIMAJOR_AXIS,PERIOD,APOGEE,PERIGEE,DECAYED
52469.0,STARLINK-3828,PAYLOAD,2022-05-22 22:00:01,15.73186872,0.0001992,53.216,184.5902,20.4515,330.2166,7.3712e-05,9.731e-05,0.0,0 STARLINK-3828,1 52469U 22049U   22142.91668981  .00009731  00000-0  73712-4 0  9996,2 52469  53.2160 184.5902 0001992  20.4515 330.2166 15.73186872  2777,6727.933000000001,91.534,351.13800000000015,348.457,0.0
52469.0,STARLINK-3828,PAYLOAD,2022-05-23 14:00:01,15.73134635,0.0002392,53.2149,181.2924,20.0205,148.4042,0.00062971,0.00088448,0.0,0 STARLINK-3828,1 52469U 22049U   22143.58334491  .00088448  00000-0  62971-3 0  9992,2 52469  53.2149 181.2924 0002392  20.0205 148.4042 15.73134635  1309,6728.081999999999,91.537,351.556,348.337,0.0
52469.0,STARLINK-3828,PAYLOAD,2022-05-23 16:00:00,15.73162299,0.0002358,53.2147,180.8794,20.5605,260.0767,0.00036976,0.00051512,0.0,0 STARLINK-3828,1 52469U 22049U   22143.66667824  .00051512  00000-0  36976-3 0  9998,2 52469  53.2147 180.8794 0002358  20.5605 260.0767 15.73162299  2884,6728.003000000002,91.535,351.454,348.281,0.0
52469.0,STARLINK-3828,PAYLOAD,2022-05-23 22:00:01,15.73199918,0.0002089,53.215,179.6408,21.1232,236.263,-0.00016073,-0.00023119,0.0,0 STARLINK-3828,1 52469U 22049U   22143.91668981 -.00023119  00000-0 -16073-3 0  9991,2 52469  53.2150 179.6408 0002089  21.1232 236.2630 15.73199918  1308,6727.895,91.533,351.166,348.355,0.0
52469.0,STARLINK-3828,PAYLOAD,2022-05-24 03:00:35,15.73176147,0.0002379,53.2152,178.6072,42.1355,317.9848,-3.4223e-05,-5.417e-05,0.0,0 STARLINK-3828,1 52469U 22049U   22144.12540630 -.00005417  00000-0 -34223-4 0  9994,2 52469  53.2152 178.6072 0002379  42.1355 317.9848 15.73176147  2967,6727.9630000000025,91.535,351.42900000000014,348.228,0.0
52469.0,STARLINK-3828,PAYLOAD,2022-05-24 13:40:56,15.7320549,0.0002135,53.2152,176.4061,35.2006,324.9155,6.6258e-05,8.690000000000001e-05,0.0,0 STARLINK-3828,1 52469U 22049U   22144.57009694  .00008690  00000-0  66258-4 0  9990,2 52469  53.2152 176.4061 0002135  35.2006 324.9155 15.73205490  2870,6727.88,91.533,351.181,348.30800000000005,0.0
52469.0,STARLINK-3828,PAYLOAD,2022-05-24 14:00:01,15.72819438,0.0002362,53.2166,176.3464,32.0754,43.1028,0.0042083999999999,0.00625949,0.0,0 STARLINK-3828,1 52469U 22049U   22144.58334491  .00625949  00000-0  42084-2 0  9998,2 52469  53.2166 176.3464 0002362  32.0754  43.1028 15.72819438  3038,6728.98,91.555,352.435,349.256,0.0
52469.0,STARLINK-3828,PAYLOAD,2022-05-24 22:00:00,15.731753,0.0002209,53.2154,174.6922,25.587,138.5768,0.00064079,0.0009019,0.0,0 STARLINK-3828,1 52469U 22049U   22144.91667824  .00090190  00000-0  64079-3 0  9997,2 52469  53.2154 174.6922 0002209  25.5870 138.5768 15.73175300  1303,6727.965999999999,91.535,351.31699999999995,348.344,0.0
52469.0,STARLINK-3828,PAYLOAD,2022-05-25 06:00:00,15.73234717,0.0002307,53.2155,173.0438,23.7745,229.3253,-0.00029644,-0.00042084,0.0,0 STARLINK-3828,1 52469U 22049U   22145.25001157 -.00042084  00000-0 -29644-3 0  9996,2 52469  53.2155 173.0438 0002307  23.7745 229.3253 15.73234717  3138,6727.795999999999,91.531,351.213,348.1090000000001,0.0
52469.0,STARLINK-3828,PAYLOAD,2022-05-25 14:00:01,15.73205551,0.0002412,53.2147,171.3952,17.8703,324.1737,-0.00017037,-0.00024472,0.0,0 STARLINK-3828,1 52469U 22049U   22145.58334491 -.00024472  00000-0 -17037-3 0  9996,2 52469  53.2147 171.3952 0002412  17.8703 324.1737 15.73205551  1308,6727.879,91.533,351.367,348.122,0.0
52469.0,STARLINK-3828,PAYLOAD,2022-05-25 22:00:00,15.73177816,0.0002116,53.2147,169.7436,20.977,50.0107,4.755e-05,6.051e-05,0.0,0 STARLINK-3828,1 52469U 22049U   22145.91667824  .00006051  00000-0  47550-4 0  9997,2 52469  53.2147 169.7436 0002116  20.9770  50.0107 15.73177816  1304,6727.958000000001,91.534,351.247,348.4,0.0
52469.0,STARLINK-3828,PAYLOAD,2022-05-26 05:19:28,15.72946205,0.0004324,53.2151,168.2329,118.5941,241.5514,-0.0012268,-0.00167701,0.0,0 STARLINK-3828,1 52469U 22049U   22146.22185436 -.00167701  00000-0 -12268-2 0  9994,2 52469  53.2151 168.2329 0004324 118.5941 241.5514 15.72946205  3295,6728.619000000002,91.548,353.39300000000014,347.574,0.0
52469.0,STARLINK-3828,PAYLOAD,2022-05-26 06:00:00,15.73188326,0.0002261,53.2149,168.0954,23.7965,136.082,7.9005e-05,0.00010476,0.0,0 STARLINK-3828,1 52469U 22049U   22146.25001157  .00010476  00000-0  79005-4 0  9992,2 52469  53.2149 168.0954 0002261  23.7965 136.0820 15.73188326  3296,6727.928000000001,91.534,351.315,348.272,0.0
52469.0,STARLINK-3828,PAYLOAD,2022-05-26 12:56:48,15.73218771,0.000214,53.215,166.6608,31.7023,328.4126,0.00011186,0.00015119,0.0,0 STARLINK-3828,1 52469U 22049U   22146.53945500  .00015119  00000-0  11186-3 0  9996,2 52469  53.2150 166.6608 0002140  31.7023 328.4126 15.73218771  3348,6727.842,91.532,351.146,348.267,0.0
52469.0,STARLINK-3828,PAYLOAD,2022-05-26 14:00:01,15.73184888,0.0002389,53.2146,166.4466,19.2616,229.5383,-2.644e-05,-4.329e-05,0.0,0 STARLINK-3828,1 52469U 22049U   22146.58334491 -.00004329  00000-0 -26440-4 0  9995,2 52469  53.2146 166.4466 0002389  19.2616 229.5383 15.73184888  1308,6727.938,91.534,351.411,348.196,0.0
52469.0,STARLINK-3828,PAYLOAD,2022-05-26 20:00:01,15.731878,0.0002222,53.2152,165.2078,21.984,203.4983,-0.00029124,-0.00041278,0.0,0 STARLINK-3828,1 52469U 22049U   22146.83334491 -.00041278  00000-0 -29124-3 0  9998,2 52469  53.2152 165.2078 0002222  21.9840 203.4983 15.73187800  3380,6727.93,91.534,351.29,348.3,0.0
52469.0,STARLINK-3828,PAYLOAD,2022-05-26 22:00:00,15.73165692,0.0002208,53.2149,164.795,23.8355,313.8794,-4.8335e-05,-7.389e-05,0.0,0 STARLINK-3828,1 52469U 22049U   22146.91667824 -.00007389  00000-0 -48335-4 0  9997,2 52469  53.2149 164.7950 0002208  23.8355 313.8794 15.73165692  1306,6727.993,91.535,351.344,348.372,0.0
52469.0,STARLINK-3828,PAYLOAD,2022-05-27 01:08:40,15.73193569,0.0002236,53.215,164.1469,29.0856,331.0288,4.8895e-05,6.244e-05,0.0,0 STARLINK-3828,1 52469U 22049U   22147.04768934  .00006244  00000-0  48895-4 0  9994,2 52469  53.2150 164.1469 0002236  29.0856 331.0288 15.73193569  3421,6727.9140000000025,91.534,351.283,348.274,0.0
52469.0,STARLINK-3828,PAYLOAD,2022-05-27 14:00:01,15.73180465,0.0002547,53.2142,161.4981,26.7138,128.7632,0.0003102,0.00043105,0.0,0 STARLINK-3828,1 52469U 22049U   22147.58334491  .00043105  00000-0  31020-3 0  9998,2 52469  53.2142 161.4981 0002547  26.7138 128.7632 15.73180465  1303,6727.951,91.534,351.529,348.102,0.0
52469.0,STARLINK-3828,PAYLOAD,2022-05-27 16:00:00,15.73206827,0.0002467,53.2142,161.0849,27.2801,240.4228,6.3626e-05,8.32e-05,0.0,0 STARLINK-3828,1 52469U 22049U   22147.66667824  .00008320  00000-0  63626-4 0  9994,2 52469  53.2142 161.0849 0002467  27.2801 240.4228 15.73206827  3515,6727.876,91.533,351.4,348.081,0.0
52469.0,STARLINK-3828,PAYLOAD,2022-05-27 22:00:01,15.73211042,0.0002211,53.2142,159.8464,28.593000000000004,215.8816,0.00022039,0.00030438,0.0,0 STARLINK-3828,1 52469U 22049U   22147.91668981  .00030438  00000-0  22039-3 0  9994,2 52469  53.2142 159.8464 0002211  28.5930 215.8816 15.73211042  1306,6727.864000000001,91.533,351.216,348.241,0.0
52469.0,STARLINK-3828,PAYLOAD,2022-05-28 14:00:01,15.73405247,0.0002437,53.2154,156.5509,20.6557,41.6713,-0.0037014,-0.00495157,0.0,0 STARLINK-3828,1 52469U 22049U   22148.58334491 -.00495157  00000-0 -37014-2 0  9997,2 52469  53.2154 156.5509 0002437  20.6557  41.6713 15.73405247  1304,6727.31,91.521,350.815,347.536,0.0
52469.0,STARLINK-3828,PAYLOAD,2022-05-28 22:00:00,15.73205193,0.0002158,53.2145,154.8973,24.7759,126.5678,0.00040107,0.00056059,0.0,0 STARLINK-3828,1 52469U 22049U   22148.91667824  .00056059  00000-0  40107-3 0  9993,2 52469  53.2145 154.8973 0002158  24.7759 126.5678 15.73205193  3717,6727.88,91.533,351.19699999999995,348.293,0.0
52469.0,STARLINK-3828,PAYLOAD,2022-05-29 03:27:30,15.73217907,0.0002523,53.2144,153.7721,20.2964,339.8156,-2.5165e-06,-9.76e-06,0.0,0 STARLINK-3828,1 52469U 22049U   22149.14410526 -.00000976  00000-0 -25165-5 0  9992,2 52469  53.2144 153.7721 0002523  20.2964 339.8156 15.73217907  3750,6727.844,91.532,351.407,348.01199999999994,0.0
52469.0,STARLINK-3828,PAYLOAD,2022-05-29 14:00:01,15.73185721,0.0002323,53.2141,151.5999,17.7583,311.4449,-0.00053466,-0.00074957,0.0,0 STARLINK-3828,1 52469U 22049U   22149.58334491 -.00074957  00000-0 -53466-3 0  9999,2 52469  53.2141 151.5999 0002323  17.7583 311.4449 15.73185721  3823,6727.936,91.534,351.36400000000015,348.23800000000006,0.0
52469.0,STARLINK-3828,PAYLOAD,2022-05-29 22:00:00,15.730917300000002,0.0002055,53.2143,149.9486,23.298,34.7996,0.00047769,0.00066646,0.0,0 STARLINK-3828,1 52469U 22049U   22149.91667824  .00066646  00000-0  47769-3 0  9998,2 52469  53.2143 149.9486 0002055  23.2980  34.7996 15.73091730  1301,6728.204000000002,91.539,351.452,348.686,0.0
52469.0,STARLINK-3828,PAYLOAD,2022-05-30 06:00:00,15.73114841,0.0002235,53.2146,148.3016,21.8299,125.0968,0.0010813,0.0015338,0.0,0 STARLINK-3828,1 52469U 22049U   22150.25001157  .00153380  00000-0  10813-2 0  9999,2 52469  53.2146 148.3016 0002235  21.8299 125.0968 15.73114841  3925,6728.138000000001,91.538,351.50699999999995,348.499,0.0
52469.0,STARLINK-3828,PAYLOAD,2022-05-30 14:00:01,15.73244171,0.0002242,53.2143,146.6516,17.972,217.8195,0.00011423,0.00015471,0.0,0 STARLINK-3828,1 52469U 22049U   22150.58334491  .00015471  00000-0  11423-3 0  9992,2 52469  53.2143 146.6516 0002242  17.9720 217.8195 15.73244171  1303,6727.769,91.531,351.14300000000014,348.126,0.0
52469.0,STARLINK-3828,PAYLOAD,2022-05-30 22:00:00,15.73237413,0.0002105,53.2148,145.0,23.6914,301.0845,-0.00011239,-0.00016391,0.0,0 STARLINK-3828,1 52469U 22049U   22150.91667824 -.00016391  00000-0 -11239-3 0  9997,2 52469  53.2148 145.0000 0002105  23.6914 301.0845 15.73237413  4027,6727.7890000000025,91.531,351.07,348.237,0.0
